STARLINK-3536           
1 51888U 22022AN  26178.25002315  .00014678  00000+0  78199-3 0  9992
2 51888  53.1591 227.0287 0000095  58.7133 293.3208 15.15429368  5797
STARLINK-3547           
1 51889U 22022AP  26178.25002315  .00045900  00000+0  18038-2 0  9990
2 51889  53.1588 226.3277 0001226  66.3577  26.6630 15.25258476  5808
STARLINK-3549           
1 51891U 22022AR  26178.25002315  .01077535  00000+0  34264-1 0  9991
2 51891  53.1608 225.9339 0000619  91.2675 223.8076 15.29238199  5808
STARLINK-3587           
1 51892U 22022AS  26178.25002315  .00059435  00000+0  22842-2 0  9990
2 51892  53.1589 226.4019 0001112  40.3451 355.0353 15.25883654  5808
STARLINK-3579           
1 51893U 22022AT  26178.28637167  .00015480  00000+0  96320-3 0  9998
2 51893  53.2144 227.0017 0001931  35.5536 324.5585 15.09793381239852
STARLINK-3595           
1 51894U 22022AU  26178.25002315  .00062542  00000+0  24310-2 0  9997
2 51894  53.1611 226.3270 0002255  67.6159  65.6658 15.25483035  5700
STARLINK-3594           
1 51895U 22022AV  26178.25002315  .01215093  00000+0  44144-1 0  9996
2 51895  53.1606 226.3596 0001802  83.8653  72.4012 15.24951957  5805
STARLINK-3593           
1 51896U 22022AW  26178.25002315  .00046571  00000+0  23111-2 0  9991
2 51896  53.1599 227.1819 0001698  57.4908  29.5667 15.17274048  5740
STARLINK-3598           
1 51897U 22022AX  26178.25002315  .01145688  00000+0  34519-1 0  9995
2 51897  53.1591 225.9058 0001367  62.1586 347.0072 15.31279592  5802
STARLINK-3597           
1 51898U 22022AY  26178.25002315  .00067416  00000+0  22010-2 0  9991
2 51898  53.1590 225.9212 0001422  58.6021   4.0818 15.31165135  5748
STARLINK-3700           
1 51956U 22025A   26178.29455437 -.00000283  00000+0  26390-5 0  9998
2 51956  53.1593 223.7230 0001184  75.1159 284.9973 15.31700477237969
STARLINK-3694           
1 51957U 22025B   26177.89886103 -.00000132  00000+0  75228-5 0  9999
2 51957  53.1582 248.7837 0001217  93.8323 266.2817 15.31699025237567
STARLINK-3692           
1 51958U 22025C   26178.28522131  .00000663  00000+0  33123-4 0  9997
2 51958  53.1581 223.6754 0000806 100.1621 259.9471 15.31697957237964
STARLINK-3704           
1 51959U 22025D   26177.89494367 -.00000327  00000+0  12247-5 0  9996
2 51959  53.1597 249.3732 0001134  85.5068 274.6063 15.31704877237555
STARLINK-3691           
1 51960U 22025E   26177.48868878  .00000050  00000+0  13382-4 0  9997
2 51960  53.1593 250.5075 0001128  83.4237 276.6893 15.31701384237503
STARLINK-3697           
1 51962U 22025G   26177.87718817 -.00000437  00000+0 -23173-5 0  9990
2 51962  53.1587 236.3116 0001145  87.6622 272.4511 15.31698147237748
STARLINK-3675           
1 51963U 22025H   26178.28055682  .00000055  00000+0  13543-4 0  9994
2 51963  53.1583 223.6957 0001117  82.3324 277.7805 15.31703735237965
STARLINK-3690           
1 51964U 22025J   26177.86320450 -.00000204  00000+0  51924-5 0  9999
2 51964  53.1596 236.3660 0001159  84.5303 275.5831 15.31701928237742
STARLINK-3696           
1 51965U 22025K   26177.93153019 -.00000113  00000+0  81062-5 0  9998
2 51965  53.1588 248.9914 0001110  85.4667 274.6462 15.31700014237560
STARLINK-3699           
1 51966U 22025L   26177.92218057 -.00000276  00000+0  28627-5 0  9990
2 51966  53.1596 248.7873 0001267  93.7191 266.3955 15.31696680237567
STARLINK-3681           
1 51968U 22025N   26178.31065059  .00000044  00000+0  13178-4 0  9994
2 51968  53.1582 234.2822 0001188  84.2718 275.8419 15.31697397237814
STARLINK-3680           
1 51969U 22025P   26177.86787344  .00001519  00000+0  60732-4 0  9998
2 51969  53.1588 236.3855 0001339  91.7018 268.4137 15.31691236237736
STARLINK-3677           
1 51970U 22025Q   26178.00003472  .00037000  00000+0  11991-2 0  9995
2 51970  53.1587 248.9109 0001224  93.5972 152.0207 15.31674510  5870
STARLINK-3669           
1 51971U 22025R   26177.88187588 -.00000466  00000+0 -32478-5 0  9996
2 51971  53.1586 236.4839 0000983  87.2449 272.8665 15.31696828237740
STARLINK-3671           
1 51972U 22025S   26177.61529564 -.00000001  00000+0  11735-4 0  9998
2 51972  53.1609 250.6504 0001116  82.0979 278.0149 15.31703932237519
STARLINK-3679           
1 51973U 22025T   26177.91285520 -.00000230  00000+0  43465-5 0  9993
2 51973  53.1589 248.8090 0001109  90.6234 269.4894 15.31697362237562
STARLINK-3672           
1 51974U 22025U   26177.91754969 -.00000131  00000+0  75331-5 0  9999
2 51974  53.1595 249.0176 0001286  86.7787 273.3361 15.31695534237554
STARLINK-3674           
1 51975U 22025V   26178.31523226 -.00000050  00000+0  10143-4 0  9994
2 51975  53.1585 233.7925 0001113  77.0077 283.1049 15.31701829237827
STARLINK-3660           
1 51977U 22025X   26178.25002315  .00068228  00000+0  34581-2 0  9990
2 51977  53.1590 247.0253 0001867  48.2335  34.2799 15.16353951  5608
STARLINK-3649           
1 51980U 22025AA  26177.96297031 -.00000452  00000+0 -10288-4 0  9999
2 51980  53.1604 268.4181 0001042  83.8315 276.2795 15.08827119237551
