OBJECT_NAME,OBJECT_ID,EPOCH,MEAN_MOTION,ECCENTRICITY,INCLINATION,RA_OF_ASC_NODE,ARG_OF_PERICENTER,MEAN_ANOMALY,EPHEMERIS_TYPE,CLASSIFICATION_TYPE,NORAD_CAT_ID,ELEMENT_SET_NO,REV_AT_EPOCH,BSTAR,MEAN_MOTION_DOT,MEAN_MOTION_DDOT
STARLINK-3536,2022-022AN,2026-06-27T06:00:02.000160,15.15429368,.00000959,53.1591,227.0287,58.7133,293.3208,0,U,51888,999,579,.78199005E-3,.14678E-3,0
STARLINK-3547,2022-022AP,2026-06-27T06:00:02.000160,15.25258476,.00012268,53.1588,226.3277,66.3577,26.6630,0,U,51889,999,580,.18037933E-2,.459E-3,0
STARLINK-3549,2022-022AR,2026-06-27T06:00:02.000160,15.29238199,.00006198,53.1608,225.9339,91.2675,223.8076,0,U,51891,999,580,.3426435E-1,.1077535E-1,0
STARLINK-3587,2022-022AS,2026-06-27T06:00:02.000160,15.25883654,.00011129,53.1589,226.4019,40.3451,355.0353,0,U,51892,999,580,.22842373E-2,.59435E-3,0
STARLINK-3579,2022-022AT,2026-06-27T06:52:22.512288,15.09793381,.00019312,53.2144,227.0017,35.5536,324.5585,0,U,51893,999,23985,.96320324E-3,.1548E-3,0
STARLINK-3595,2022-022AU,2026-06-27T06:00:02.000160,15.25483035,.0002255,53.1611,226.3270,67.6159,65.6658,0,U,51894,999,570,.24309724E-2,.62542E-3,0
STARLINK-3594,2022-022AV,2026-06-27T06:00:02.000160,15.24951957,.00018027,53.1606,226.3596,83.8653,72.4012,0,U,51895,999,580,.44144422E-1,.1215093E-1,0
STARLINK-3593,2022-022AW,2026-06-27T06:00:02.000160,15.17274048,.00016982,53.1599,227.1819,57.4908,29.5667,0,U,51896,999,574,.23111101E-2,.46571E-3,0
STARLINK-3598,2022-022AX,2026-06-27T06:00:02.000160,15.31279592,.0001367,53.1591,225.9058,62.1586,347.0072,0,U,51897,999,580,.3451944E-1,.1145688E-1,0
STARLINK-3597,2022-022AY,2026-06-27T06:00:02.000160,15.31165135,.00014223,53.1590,225.9212,58.6021,4.0818,0,U,51898,999,574,.22009894E-2,.67416E-3,0
STARLINK-3700,2022-025A,2026-06-27T07:04:09.497568,15.31700477,.00011847,53.1593,223.7230,75.1159,284.9973,0,U,51956,999,23796,.2639008E-5,-.283E-5,0
STARLINK-3694,2022-025B,2026-06-26T21:34:21.592992,15.31699025,.0001217,53.1582,248.7837,93.8323,266.2817,0,U,51957,999,23756,.75228E-5,-.132E-5,0
STARLINK-3692,2022-025C,2026-06-27T06:50:43.121184,15.31697957,.00008063,53.1581,223.6754,100.1621,259.9471,0,U,51958,999,23796,.33122745E-4,.663E-5,0
STARLINK-3704,2022-025D,2026-06-26T21:28:43.133088,15.31704877,.0001134,53.1597,249.3732,85.5068,274.6063,0,U,51959,999,23755,.12247E-5,-.327E-5,0
STARLINK-3691,2022-025E,2026-06-26T11:43:42.710592,15.31701384,.00011284,53.1593,250.5075,83.4237,276.6893,0,U,51960,999,23750,.13382198E-4,.5E-6,0
STARLINK-3697,2022-025G,2026-06-26T21:03:09.057888,15.31698147,.0001145,53.1587,236.3116,87.6622,272.4511,0,U,51962,999,23774,-.23173E-5,-.437E-5,0
STARLINK-3675,2022-025H,2026-06-27T06:44:00.109248,15.31703735,.00011175,53.1583,223.6957,82.3324,277.7805,0,U,51963,999,23796,.13542515E-4,.55E-6,0
STARLINK-3690,2022-025J,2026-06-26T20:43:00.868800,15.31701928,.0001159,53.1596,236.3660,84.5303,275.5831,0,U,51964,999,23774,.51924E-5,-.204E-5,0
STARLINK-3696,2022-025K,2026-06-26T22:21:24.208416,15.31700014,.000111,53.1588,248.9914,85.4667,274.6462,0,U,51965,999,23756,.81062E-5,-.113E-5,0
STARLINK-3699,2022-025L,2026-06-26T22:07:56.401248,15.31696680,.0001267,53.1596,248.7873,93.7191,266.3955,0,U,51966,999,23756,.28627E-5,-.276E-5,0
STARLINK-3681,2022-025N,2026-06-27T07:27:20.210976,15.31697397,.00011883,53.1582,234.2822,84.2718,275.8419,0,U,51968,999,23781,.1317794E-4,.44E-6,0
STARLINK-3680,2022-025P,2026-06-26T20:49:44.265216,15.31691236,.0001339,53.1588,236.3855,91.7018,268.4137,0,U,51969,999,23773,.60732E-4,.1519E-4,0
STARLINK-3677,2022-025Q,2026-06-27T00:00:02.999808,15.31674510,.00012242,53.1587,248.9109,93.5972,152.0207,0,U,51970,999,587,.11991045E-2,.37E-3,0
STARLINK-3669,2022-025R,2026-06-26T21:09:54.076032,15.31696828,.0000983,53.1586,236.4839,87.2449,272.8665,0,U,51971,999,23774,-.32478E-5,-.466E-5,0
STARLINK-3671,2022-025S,2026-06-26T14:46:01.543296,15.31703932,.0001116,53.1609,250.6504,82.0979,278.0149,0,U,51972,999,23751,.11735E-4,-.1E-7,0
STARLINK-3679,2022-025T,2026-06-26T21:54:30.689280,15.31697362,.0001109,53.1589,248.8090,90.6234,269.4894,0,U,51973,999,23756,.43465E-5,-.23E-5,0
STARLINK-3672,2022-025U,2026-06-26T22:01:16.293216,15.31695534,.0001286,53.1595,249.0176,86.7787,273.3361,0,U,51974,999,23755,.75331E-5,-.131E-5,0
STARLINK-3674,2022-025V,2026-06-27T07:33:56.067264,15.31701829,.00011135,53.1585,233.7925,77.0077,283.1049,0,U,51975,999,23782,.1014339E-4,-.5E-6,0
STARLINK-3660,2022-025X,2026-06-27T06:00:02.000160,15.16353951,.00018676,53.1590,247.0253,48.2335,34.2799,0,U,51977,999,560,.34580767E-2,.68228E-3,0
STARLINK-3649,2022-025AA,2026-06-26T23:06:40.634784,15.08827119,.00010421,53.1604,268.4181,83.8315,276.2795,0,U,51980,999,23755,-.10288138E-4,-.452E-5,0
